{
  "norad_id": 28935,
  "name": "ECHOSTAR 10",
  "history": [
    {
      "epoch": "2026-03-28T21:06:14.243328Z",
      "apogee_km": 35793.49236756229,
      "perigee_km": 35779.94985843357,
      "latitude_deg": -0.02164480047156042,
      "longitude_deg": -110.17498261531095,
      "height_km": 35782.543265666776,
      "semi_major_axis_km": 42164.858112997936,
      "eccentricity": 0.00016059,
      "inclination_deg": 0.0441,
      "raan_deg": 21.3906,
      "arg_perigee_deg": 313.811,
      "mean_anomaly_deg": 57.4372,
      "mean_motion_rev_day": 1.00271335
    },
    {
      "epoch": "2026-03-29T03:18:38.644992Z",
      "apogee_km": 35793.53218242532,
      "perigee_km": 35779.87920636088,
      "latitude_deg": 0.0021155228847804758,
      "longitude_deg": -110.1817302955446,
      "height_km": 35792.14675308257,
      "semi_major_axis_km": 42164.842694393104,
      "eccentricity": 0.0001619,
      "inclination_deg": 0.0434,
      "raan_deg": 25.7561,
      "arg_perigee_deg": 309.6947,
      "mean_anomaly_deg": 150.5443,
      "mean_motion_rev_day": 1.0027139
    },
    {
      "epoch": "2026-03-30T05:32:25.536768Z",
      "apogee_km": 35793.088661006426,
      "perigee_km": 35780.17190619677,
      "latitude_deg": 0.01505256542327966,
      "longitude_deg": -110.19264713213936,
      "height_km": 35792.59374483097,
      "semi_major_axis_km": 42164.7672836016,
      "eccentricity": 0.00015317,
      "inclination_deg": 0.0482,
      "raan_deg": 24.9677,
      "arg_perigee_deg": 318.2449,
      "mean_anomaly_deg": 177.304,
      "mean_motion_rev_day": 1.00271659
    },
    {
      "epoch": "2026-03-30T10:45:23.723136Z",
      "apogee_km": 35792.972800705655,
      "perigee_km": 35780.21543965793,
      "latitude_deg": 0.021053202681142382,
      "longitude_deg": -110.21096167358888,
      "height_km": 35787.97468554977,
      "semi_major_axis_km": 42164.731120181794,
      "eccentricity": 0.00015128,
      "inclination_deg": 0.0486,
      "raan_deg": 30.3724,
      "arg_perigee_deg": 315.6446,
      "mean_anomaly_deg": 252.9559,
      "mean_motion_rev_day": 1.00271788
    },
    {
      "epoch": "2026-03-30T21:01:17.045472Z",
      "apogee_km": 35793.000566850314,
      "perigee_km": 35780.23645206248,
      "latitude_deg": -0.022764463660067694,
      "longitude_deg": -110.18159573931743,
      "height_km": 35781.93058930383,
      "semi_major_axis_km": 42164.7555094564,
      "eccentricity": 0.00015136,
      "inclination_deg": 0.0483,
      "raan_deg": 28.0249,
      "arg_perigee_deg": 315.9249,
      "mean_anomaly_deg": 49.4174,
      "mean_motion_rev_day": 1.00271701
    }
  ]
}